COSMOS 2251 DEB         
1 37292U 93036BJG 26077.13678213  .00002889  00000+0  15124-2 0  9998
2 37292  74.1216 244.4359 0210052 223.5535 134.8854 14.04052890611871
COSMOS 2251 DEB         
1 37295U 93036BJK 26086.29926461  .00002623  00000+0  47711-3 0  9993
2 37295  74.0038  79.9354 0047128 234.0838 125.5953 14.65962406838368
COSMOS 2251 DEB         
1 37305U 93036BJV 26086.72899036  .00001524  00000+0  52172-3 0  9996
2 37305  73.8665  95.6993 0045978  32.4749 327.9217 14.36552450683742
COSMOS 2251 DEB         
1 37312U 93036BKC 26087.44881036  .00001575  00000+0  44378-3 0  9990
2 37312  74.0340   6.7912 0016422  89.0379 271.2661 14.46541440876922
COSMOS 2251 DEB         
1 37316U 93036BKG 26086.50321133  .00031146  00000+0  23582-2 0  9997
2 37316  74.0166 168.5518 0028214 226.8691 133.0138 15.01845807877124
COSMOS 2251 DEB         
1 37320U 93036BKL 26084.53751063  .00006657  00000+0  86180-3 0  9995
2 37320  74.0477  15.9199 0043051  78.6157 281.9851 14.80391018676678
COSMOS 2251 DEB         
1 37326U 93036BKS 26084.85342870  .00001797  00000+0  35463-3 0  9996
2 37326  74.0241 137.1928 0057989 241.3910 118.1417 14.62189069869901
COSMOS 2251 DEB         
1 37330U 93036BKW 26085.28208322  .00001309  00000+0  27334-3 0  9999
2 37330  74.0149  97.3715 0059444 278.4025  81.0405 14.59882885878794
COSMOS 2251 DEB         
1 37331U 93036BKX 26084.16688939  .00001748  00000+0  60654-3 0  9991
2 37331  74.0741 240.4929 0056555 230.3241 129.2917 14.35415976862296
COSMOS 2251 DEB         
1 37336U 93036BLC 26086.85846782  .00000121  00000+0  53570-4 0  9990
2 37336  74.0401 139.3061 0030171 195.4515 164.5719 14.32808610666256
COSMOS 2251 DEB         
1 37340U 93036BLG 26084.28058040  .00000431  00000+0  15374-3 0  9995
2 37340  74.0228  88.4855 0017977 167.8187 192.3404 14.37052317855407
COSMOS 2251 DEB         
1 37483U 93036BLL 26082.33028549  .00000742  00000+0  21527-3 0  9990
2 37483  73.9746 315.6331 0092221 140.1182 220.6800 14.43748212667315
COSMOS 2251 DEB         
1 37484U 93036BLM 26074.57544188  .00002925  00000+0  88572-3 0  9998
2 37484  73.8247  34.0822 0035923  50.3560  71.3304 14.42386139667175
COSMOS 2251 DEB         
1 37486U 93036BLP 26084.83993142  .00005294  00000+0  21581-2 0  9996
2 37486  73.6897 287.9784 0227852 140.6985 244.5863 14.14531897648276
COSMOS 2251 DEB         
1 37487U 93036BLQ 26084.98819654  .00022681  00000+0  24571-2 0  9999
2 37487  73.8995 345.6225 0031127 163.3124 196.9087 14.87795263827776
COSMOS 2251 DEB         
1 37491U 93036BLU 26086.73310450  .00001150  00000+0  85380-3 0  9993
2 37491  73.9034  98.0404 0310190  71.2727 292.1784 13.75630496571906
