[{"OBJECT_NAME":"COSMOS 2251 DEB","OBJECT_ID":"1993-036BJG","EPOCH":"2026-03-18T03:16:57.976032","MEAN_MOTION":14.0405289,"ECCENTRICITY":0.02100521,"INCLINATION":74.1216,"RA_OF_ASC_NODE":244.4359,"ARG_OF_PERICENTER":223.5535,"MEAN_ANOMALY":134.8854,"EPHEMERIS_TYPE":0,"CLASSIFICATION_TYPE":"U","NORAD_CAT_ID":37292,"ELEMENT_SET_NO":999,"REV_AT_EPOCH":61187,"BSTAR":0.0015123688,"MEAN_MOTION_DOT":2.889e-5,"MEAN_MOTION_DDOT":0},{"OBJECT_NAME":"COSMOS 2251 DEB","OBJECT_ID":"1993-036BJK","EPOCH":"2026-03-27T07:10:56.462304","MEAN_MOTION":14.65962406,"ECCENTRICITY":0.0047128,"INCLINATION":74.0038,"RA_OF_ASC_NODE":79.9354,"ARG_OF_PERICENTER":234.0838,"MEAN_ANOMALY":125.5953,"EPHEMERIS_TYPE":0,"CLASSIFICATION_TYPE":"U","NORAD_CAT_ID":37295,"ELEMENT_SET_NO":999,"REV_AT_EPOCH":83836,"BSTAR":0.00047711,"MEAN_MOTION_DOT":2.623e-5,"MEAN_MOTION_DDOT":0},{"OBJECT_NAME":"COSMOS 2251 DEB","OBJECT_ID":"1993-036BJV","EPOCH":"2026-03-27T17:29:44.767104","MEAN_MOTION":14.3655245,"ECCENTRICITY":0.0045978,"INCLINATION":73.8665,"RA_OF_ASC_NODE":95.6993,"ARG_OF_PERICENTER":32.4749,"MEAN_ANOMALY":327.9217,"EPHEMERIS_TYPE":0,"CLASSIFICATION_TYPE":"U","NORAD_CAT_ID":37305,"ELEMENT_SET_NO":999,"REV_AT_EPOCH":68374,"BSTAR":0.00052172283,"MEAN_MOTION_DOT":1.524e-5,"MEAN_MOTION_DDOT":0},{"OBJECT_NAME":"COSMOS 2251 DEB","OBJECT_ID":"1993-036BKC","EPOCH":"2026-03-28T10:46:17.215104","MEAN_MOTION":14.4654144,"ECCENTRICITY":0.00164229,"INCLINATION":74.034,"RA_OF_ASC_NODE":6.7912,"ARG_OF_PERICENTER":89.0379,"MEAN_ANOMALY":271.2661,"EPHEMERIS_TYPE":0,"CLASSIFICATION_TYPE":"U","NORAD_CAT_ID":37312,"ELEMENT_SET_NO":999,"REV_AT_EPOCH":87692,"BSTAR":0.00044378006,"MEAN_MOTION_DOT":1.575e-5,"MEAN_MOTION_DDOT":0},{"OBJECT_NAME":"COSMOS 2251 DEB","OBJECT_ID":"1993-036BKG","EPOCH":"2026-03-27T12:04:37.458912","MEAN_MOTION":15.01845807,"ECCENTRICITY":0.0028214,"INCLINATION":74.0166,"RA_OF_ASC_NODE":168.5518,"ARG_OF_PERICENTER":226.8691,"MEAN_ANOMALY":133.0138,"EPHEMERIS_TYPE":0,"CLASSIFICATION_TYPE":"U","NORAD_CAT_ID":37316,"ELEMENT_SET_NO":999,"REV_AT_EPOCH":87712,"BSTAR":0.0023582,"MEAN_MOTION_DOT":0.00031146,"MEAN_MOTION_DDOT":0},{"OBJECT_NAME":"COSMOS 2251 DEB","OBJECT_ID":"1993-036BKL","EPOCH":"2026-03-25T12:54:00.918432","MEAN_MOTION":14.80391018,"ECCENTRICITY":0.0043051,"INCLINATION":74.0477,"RA_OF_ASC_NODE":15.9199,"ARG_OF_PERICENTER":78.6157,"MEAN_ANOMALY":281.9851,"EPHEMERIS_TYPE":0,"CLASSIFICATION_TYPE":"U","NORAD_CAT_ID":37320,"ELEMENT_SET_NO":999,"REV_AT_EPOCH":67667,"BSTAR":0.0008618,"MEAN_MOTION_DOT":6.657e-5,"MEAN_MOTION_DDOT":0},{"OBJECT_NAME":"COSMOS 2251 DEB","OBJECT_ID":"1993-036BKS","EPOCH":"2026-03-25T20:28:56.239680","MEAN_MOTION":14.62189069,"ECCENTRICITY":0.00579891,"INCLINATION":74.0241,"RA_OF_ASC_NODE":137.1928,"ARG_OF_PERICENTER":241.391,"MEAN_ANOMALY":118.1417,"EPHEMERIS_TYPE":0,"CLASSIFICATION_TYPE":"U","NORAD_CAT_ID":37326,"ELEMENT_SET_NO":999,"REV_AT_EPOCH":86990,"BSTAR":0.00035462742,"MEAN_MOTION_DOT":1.797e-5,"MEAN_MOTION_DDOT":0},{"OBJECT_NAME":"COSMOS 2251 DEB","OBJECT_ID":"1993-036BKW","EPOCH":"2026-03-26T06:46:11.990208","MEAN_MOTION":14.59882885,"ECCENTRICITY":0.0059444,"INCLINATION":74.0149,"RA_OF_ASC_NODE":97.3715,"ARG_OF_PERICENTER":278.4025,"MEAN_ANOMALY":81.0405,"EPHEMERIS_TYPE":0,"CLASSIFICATION_TYPE":"U","NORAD_CAT_ID":37330,"ELEMENT_SET_NO":999,"REV_AT_EPOCH":87879,"BSTAR":0.00027334,"MEAN_MOTION_DOT":1.309e-5,"MEAN_MOTION_DDOT":0},{"OBJECT_NAME":"COSMOS 2251 DEB","OBJECT_ID":"1993-036BKX","EPOCH":"2026-03-25T04:00:19.243296","MEAN_MOTION":14.35415976,"ECCENTRICITY":0.00565554,"INCLINATION":74.0741,"RA_OF_ASC_NODE":240.4929,"ARG_OF_PERICENTER":230.3241,"MEAN_ANOMALY":129.2917,"EPHEMERIS_TYPE":0,"CLASSIFICATION_TYPE":"U","NORAD_CAT_ID":37331,"ELEMENT_SET_NO":999,"REV_AT_EPOCH":86229,"BSTAR":0.00060654402,"MEAN_MOTION_DOT":1.748e-5,"MEAN_MOTION_DDOT":0},{"OBJECT_NAME":"COSMOS 2251 DEB","OBJECT_ID":"1993-036BLC","EPOCH":"2026-03-27T20:36:11.619648","MEAN_MOTION":14.3280861,"ECCENTRICITY":0.00301713,"INCLINATION":74.0401,"RA_OF_ASC_NODE":139.3061,"ARG_OF_PERICENTER":195.4515,"MEAN_ANOMALY":164.5719,"EPHEMERIS_TYPE":0,"CLASSIFICATION_TYPE":"U","NORAD_CAT_ID":37336,"ELEMENT_SET_NO":999,"REV_AT_EPOCH":66625,"BSTAR":5.3569893e-5,"MEAN_MOTION_DOT":1.21e-6,"MEAN_MOTION_DDOT":0},{"OBJECT_NAME":"COSMOS 2251 DEB","OBJECT_ID":"1993-036BLG","EPOCH":"2026-03-25T06:44:02.146560","MEAN_MOTION":14.37052317,"ECCENTRICITY":0.00179775,"INCLINATION":74.0228,"RA_OF_ASC_NODE":88.4855,"ARG_OF_PERICENTER":167.8187,"MEAN_ANOMALY":192.3404,"EPHEMERIS_TYPE":0,"CLASSIFICATION_TYPE":"U","NORAD_CAT_ID":37340,"ELEMENT_SET_NO":999,"REV_AT_EPOCH":85540,"BSTAR":0.00015373743,"MEAN_MOTION_DOT":4.31e-6,"MEAN_MOTION_DDOT":0},{"OBJECT_NAME":"COSMOS 2251 DEB","OBJECT_ID":"1993-036BLL","EPOCH":"2026-03-23T07:55:36.666336","MEAN_MOTION":14.43748212,"ECCENTRICITY":0.00922216,"INCLINATION":73.9746,"RA_OF_ASC_NODE":315.6331,"ARG_OF_PERICENTER":140.1182,"MEAN_ANOMALY":220.68,"EPHEMERIS_TYPE":0,"CLASSIFICATION_TYPE":"U","NORAD_CAT_ID":37483,"ELEMENT_SET_NO":999,"REV_AT_EPOCH":66731,"BSTAR":0.0002152715,"MEAN_MOTION_DOT":7.42e-6,"MEAN_MOTION_DDOT":0},{"OBJECT_NAME":"COSMOS 2251 DEB","OBJECT_ID":"1993-036BLM","EPOCH":"2026-03-15T13:48:38.178432","MEAN_MOTION":14.42386139,"ECCENTRICITY":0.00359236,"INCLINATION":73.8247,"RA_OF_ASC_NODE":34.0822,"ARG_OF_PERICENTER":50.356,"MEAN_ANOMALY":71.3304,"EPHEMERIS_TYPE":0,"CLASSIFICATION_TYPE":"U","NORAD_CAT_ID":37484,"ELEMENT_SET_NO":999,"REV_AT_EPOCH":66717,"BSTAR":0.00088572301,"MEAN_MOTION_DOT":2.925e-5,"MEAN_MOTION_DDOT":0},{"OBJECT_NAME":"COSMOS 2251 DEB","OBJECT_ID":"1993-036BLP","EPOCH":"2026-03-25T20:09:30.074688","MEAN_MOTION":14.14531897,"ECCENTRICITY":0.02278521,"INCLINATION":73.6897,"RA_OF_ASC_NODE":287.9784,"ARG_OF_PERICENTER":140.6985,"MEAN_ANOMALY":244.5863,"EPHEMERIS_TYPE":0,"CLASSIFICATION_TYPE":"U","NORAD_CAT_ID":37486,"ELEMENT_SET_NO":999,"REV_AT_EPOCH":64827,"BSTAR":0.002158146,"MEAN_MOTION_DOT":5.294e-5,"MEAN_MOTION_DDOT":0},{"OBJECT_NAME":"COSMOS 2251 DEB","OBJECT_ID":"1993-036BLQ","EPOCH":"2026-03-25T23:43:00.181056","MEAN_MOTION":14.87795263,"ECCENTRICITY":0.0031127,"INCLINATION":73.8995,"RA_OF_ASC_NODE":345.6225,"ARG_OF_PERICENTER":163.3124,"MEAN_ANOMALY":196.9087,"EPHEMERIS_TYPE":0,"CLASSIFICATION_TYPE":"U","NORAD_CAT_ID":37487,"ELEMENT_SET_NO":999,"REV_AT_EPOCH":82777,"BSTAR":0.0024571,"MEAN_MOTION_DOT":0.00022681,"MEAN_MOTION_DDOT":0},{"OBJECT_NAME":"COSMOS 2251 DEB","OBJECT_ID":"1993-036BLU","EPOCH":"2026-03-27T17:35:40.228800","MEAN_MOTION":13.75630496,"ECCENTRICITY":0.031019,"INCLINATION":73.9034,"RA_OF_ASC_NODE":98.0404,"ARG_OF_PERICENTER":71.2727,"MEAN_ANOMALY":292.1784,"EPHEMERIS_TYPE":0,"CLASSIFICATION_TYPE":"U","NORAD_CAT_ID":37491,"ELEMENT_SET_NO":999,"REV_AT_EPOCH":57190,"BSTAR":0.00085379565,"MEAN_MOTION_DOT":1.15e-5,"MEAN_MOTION_DDOT":0}]
